ONEWEB-0229             
1 48779U 21045N   25009.93944240  .00000006  00000+0 -16982-4 0  9994
2 48779  87.9068   3.3755 0001603  87.1564 272.9750 13.15547189175615
ONEWEB-0228             
1 48780U 21045P   25009.21135723  .00000067  00000+0  14373-3 0  9992
2 48780  87.9067   3.4988 0001625  89.2255 270.9062 13.15547150175431
ONEWEB-0232             
1 48781U 21045Q   25009.87131067  .00000080  00000+0  17919-3 0  9996
2 48781  87.9061   3.3717 0001706  88.5514 271.5812 13.15549942175841
ONEWEB-0231             
1 48782U 21045R   25009.69701421 -.00000069  00000+0 -21775-3 0  9998
2 48782  87.9078   3.4677 0001524  93.1343 266.9962 13.15547334175517
ONEWEB-0234             
1 48783U 21045S   25009.94499277  .00000071  00000+0  15333-3 0  9994
2 48783  87.9069   3.3615 0002968  93.3590 266.7880 13.15546790175688
ONEWEB-0238             
1 48784U 21045T   25009.21451380  .00000077  00000+0  17058-3 0  9990
2 48784  87.9068   3.5232 0001898  87.9578 272.1770 13.15551430176611
ONEWEB-0240             
1 48785U 21045U   25009.22403598  .00000820  00000+0  21446-2 0  9991
2 48785  87.9068   3.4875 0001622 103.5235 256.6076 13.15540384176638
ONEWEB-0246             
1 48786U 21045V   25009.21847519 -.00000052  00000+0 -17090-3 0  9996
2 48786  87.9070   3.4964 0001583  86.8736 273.2575 13.15546607175380
